- !!map
  id:                 0
  name:               Sun
  radius:             696342000
  mass:               1.9884098713264222e+30
  stdGravParam:       132712440041939390000
  soi:                .inf
  color:              0xffff00

- !!map
  id:                 1
  name:               Mercury
  radius:             2439700
  mass:               3.300987369461969e+23
  stdGravParam:       22031780000000.02
  soi:                112408990.75442436
  orbit:
    semiMajorAxis:    57908973645.88802
    eccentricity:     0.2056187266319207
    inclination:      28.60252108855048
    argOfPeriapsis:   66.90371044151551
    ascNodeLongitude: 10.86541167564728
  meanAnomaly0:       5.553920558995985
  epoch:              0
  orbiting:           0
  color:              0x515059

- !!map
  id:                 2
  name:               Venus
  radius:             6049000
  atmosphereAlt:      145000.0
  mass:               4.867305814842008e+24
  stdGravParam:       324858592000000.06
  soi:                616280853.7469519
  orbit:
    semiMajorAxis:    108209548790.4671
    eccentricity:     0.006810339650842032
    inclination:      24.46397633556437
    argOfPeriapsis:   123.7121294282329
    ascNodeLongitude: 7.981603378781639
  meanAnomaly0:       5.432267392125204
  epoch:              0
  orbiting:           0
  color:              0xb26128

- !!map
  id:                 3
  name:               Earth
  radius:             6371000
  atmosphereAlt:      140000.0
  mass:               5.9721683987249e+24
  stdGravParam:       398600435436096
  soi:                924649202.4610229
  orbit:
    semiMajorAxis:    149598261150.4425
    eccentricity:     0.01609636160505683
    inclination:      23.44603795469773
    argOfPeriapsis:   102.9720683296131
    ascNodeLongitude: 359.9965004168758
  meanAnomaly0:       6.231885654519576
  epoch:              0
  orbiting:           0
  color:              0x4662

- !!map
  id:                 4
  name:               Moon
  radius:             1737100
  mass:               7.345789170645306e+22
  stdGravParam:       4902800066163.796
  soi:                66167158.6569544
  orbit:
    semiMajorAxis:    384308437.7707066
    eccentricity:     0.05328149353682574
    inclination:      28.36267790798491
    argOfPeriapsis:   199.7640930160823
    ascNodeLongitude: 2.296616161126016
  meanAnomaly0:       3.8868698006324554
  epoch:              0
  orbiting:           3
  color:              0xffffff

- !!map
  id:                 5
  name:               Mars
  radius:             3375800
  atmosphereAlt:      125000.0
  mass:               6.416908682663215e+23
  stdGravParam:       42828373620699.09
  soi:                577254070.8724953
  orbit:
    semiMajorAxis:    227949699961.9763
    eccentricity:     0.09326110278323557
    inclination:      24.69272426910055
    argOfPeriapsis:   332.1022655295414
    ascNodeLongitude: 3.351911063089117
  meanAnomaly0:       2.9564361325350452
  epoch:              0
  orbiting:           0
  color:              0xa06230

- !!map
  id:                 6
  name:               Phobos
  radius:             7250
  mass:               10619160161956240
  stdGravParam:       708754.6066894452
  soi:                7238.336130105763
  orbit:
    semiMajorAxis:    9378492.209088314
    eccentricity:     0.01539938155583979
    inclination:      36.32433410471867
    argOfPeriapsis:   357.7759243021914
    ascNodeLongitude: 46.48212553464923
  meanAnomaly0:       0.12540401573484683
  epoch:              0
  orbiting:           5
  color:              0x8e7362

- !!map
  id:                 7
  name:               Deimos
  radius:             5456
  mass:               1440685861906164.5
  stdGravParam:       96155.69648120314
  soi:                8143.11240891536
  orbit:
    semiMajorAxis:    23458112.01759387
    eccentricity:     0.00032946807986617
    inclination:      38.2773701383231
    argOfPeriapsis:   263.8963868784089
    ascNodeLongitude: 47.51893570799763
  meanAnomaly0:       5.646210530657005
  epoch:              0
  orbiting:           5
  color:              0x755e4f

- !!map
  id:                 8
  name:               Vesta
  radius:             262700
  mass:               259027088523141020000
  stdGravParam:       17288244969.3
  soi:                39276806.01910567
  orbit:
    semiMajorAxis:    353346223803.158
    eccentricity:     0.0902068412255369
    inclination:      22.7696439720361
    argOfPeriapsis:   236.445369158826
    ascNodeLongitude: 18.1671232653234
  meanAnomaly0:       1.0657102610896119
  epoch:              0
  orbiting:           0
  color:              0xffffff

- !!map
  id:                 9
  name:               Ceres
  radius:             473000
  mass:               938413017095425900000
  stdGravParam:       62632500000
  soi:                76962905.73054667
  orbit:
    semiMajorAxis:    413738762313.173
    eccentricity:     0.079363494880566
    inclination:      27.1273394923134
    argOfPeriapsis:   129.19102663711
    ascNodeLongitude: 23.4501727740666
  meanAnomaly0:       1.0500332058738224
  epoch:              0
  orbiting:           0
  color:              0x7f7f7f

- !!map
  id:                 10
  name:               Jupiter
  radius:             69373000
  atmosphereAlt:      1550000.0
  mass:               1.8981246710786271e+27
  stdGravParam:       126686534921800800
  soi:                48196176124.28713
  orbit:
    semiMajorAxis:    778188938659.7554
    eccentricity:     0.04872660654702194
    inclination:      23.25313306947884
    argOfPeriapsis:   10.75642751202877
    ascNodeLongitude: 3.262077289923354
  meanAnomaly0:       5.281038885954535
  epoch:              0
  orbiting:           0
  color:              0xbe9666

- !!map
  id:                 11
  name:               Io
  radius:             1811300
  mass:               8.929649601322094e+22
  stdGravParam:       5959916033410.404
  soi:                7840344.603668602
  orbit:
    semiMajorAxis:    422018294.5236953
    eccentricity:     0.003545858426216978
    inclination:      25.46409538664874
    argOfPeriapsis:   231.2703460977786
    ascNodeLongitude: 358.046643167846
  meanAnomaly0:       3.4091064061869685
  epoch:              0
  orbiting:           10
  color:              0xa4a05c

- !!map
  id:                 12
  name:               Europa
  radius:             1550800
  mass:               4.798613749641e+22
  stdGravParam:       3202738774922.892
  soi:                9727541.139687302
  orbit:
    semiMajorAxis:    671253637.5417169
    eccentricity:     0.009511727119926178
    inclination:      25.70364276471991
    argOfPeriapsis:   53.13210737539627
    ascNodeLongitude: 358.9360081847504
  meanAnomaly0:       4.821737415499958
  epoch:              0
  orbiting:           10
  color:              0xc5c6ac

- !!map
  id:                 13
  name:               Ganymede
  radius:             2624100
  mass:               1.4814788746886034e+23
  stdGravParam:       9887834453334.145
  soi:                24359376.755679477
  orbit:
    semiMajorAxis:    1070823468.894524
    eccentricity:     0.001190086418361844
    inclination:      25.27071366962049
    argOfPeriapsis:   139.2992571342065
    ascNodeLongitude: 358.0125219248113
  meanAnomaly0:       4.060950472376478
  epoch:              0
  orbiting:           10
  color:              0x947f64

- !!map
  id:                 14
  name:               Callisto
  radius:             2409300
  mass:               1.0756617714812444e+23
  stdGravParam:       7179289361397.27
  soi:                37703185.401052766
  orbit:
    semiMajorAxis:    1883812366.573522
    eccentricity:     0.007973319796896609
    inclination:      25.44080019822134
    argOfPeriapsis:   320.7359683492656
    ascNodeLongitude: 358.5022563372704
  meanAnomaly0:       0.27604372240404196
  epoch:              0
  orbiting:           10
  color:              0x675642

- !!map
  id:                 15
  name:               Saturn
  radius:             57216000
  atmosphereAlt:      2000000.0
  mass:               5.6831738906929933e+26
  stdGravParam:       37931207498652240
  soi:                54475312962.69387
  orbit:
    semiMajorAxis:    1424838758613.269
    eccentricity:     0.05347166506749872
    inclination:      22.56992281132335
    argOfPeriapsis:   85.04661202834268
    ascNodeLongitude: 5.970845343832233
  meanAnomaly0:       1.1775536145636776
  epoch:              0
  orbiting:           0
  color:              0xe9d7b4

- !!map
  id:                 16
  name:               Mimas
  radius:             198200
  mass:               37509911151731270000
  stdGravParam:       2503524000
  soi:                249664.42402284587
  orbit:
    semiMajorAxis:    186009285.922049
    eccentricity:     0.01776275223147744
    inclination:      1.572
    argOfPeriapsis:   222.2172789396715
    ascNodeLongitude: 139.7604722490289
  meanAnomaly0:       2.1919760798055545
  epoch:              0
  orbiting:           15
  color:              0xffffff

- !!map
  id:                 17
  name:               Enceladus
  radius:             252100
  mass:               108048097415848870000
  stdGravParam:       7211454165.826
  soi:                488586.74254165136
  orbit:
    semiMajorAxis:    238413699.4838728
    eccentricity:     0.006227897999957464
    inclination:      0.009
    argOfPeriapsis:   115.5615886062458
    ascNodeLongitude: 128.4244161601446
  meanAnomaly0:       6.049837363294359
  epoch:              0
  orbiting:           15
  color:              0xffffff

